[{"OBJECT_NAME":"COSMOS 2547","OBJECT_ID":"2020-075A","EPOCH":"2026-04-26T07:48:58.861728","MEAN_MOTION":2.13100274,"ECCENTRICITY":0.0008364,"INCLINATION":64.5968,"RA_OF_ASC_NODE":194.2055,"ARG_OF_PERICENTER":236.7383,"MEAN_ANOMALY":123.2291,"EPHEMERIS_TYPE":0,"CLASSIFICATION_TYPE":"U","NORAD_CAT_ID":46805,"ELEMENT_SET_NO":999,"REV_AT_EPOCH":4280,"BSTAR":0,"MEAN_MOTION_DOT":-1.2e-7,"MEAN_MOTION_DDOT":0},{"OBJECT_NAME":"GPS BIII-4","OBJECT_ID":"2020-078A","EPOCH":"2026-04-22T22:15:39.157056","MEAN_MOTION":2.00564823,"ECCENTRICITY":0.0070939,"INCLINATION":53.9891,"RA_OF_ASC_NODE":213.0193,"ARG_OF_PERICENTER":205.6597,"MEAN_ANOMALY":155.6852,"EPHEMERIS_TYPE":0,"CLASSIFICATION_TYPE":"U","NORAD_CAT_ID":46826,"ELEMENT_SET_NO":999,"REV_AT_EPOCH":4040,"BSTAR":0,"MEAN_MOTION_DOT":-1.7e-7,"MEAN_MOTION_DDOT":0},{"OBJECT_NAME":"GSAT0223 (GALILEO 27)","OBJECT_ID":"2021-116A","EPOCH":"2026-04-26T22:52:21.759168","MEAN_MOTION":1.70475733,"ECCENTRICITY":6.033e-5,"INCLINATION":57.1768,"RA_OF_ASC_NODE":343.0587,"ARG_OF_PERICENTER":260.856,"MEAN_ANOMALY":95.413,"EPHEMERIS_TYPE":0,"CLASSIFICATION_TYPE":"U","NORAD_CAT_ID":49809,"ELEMENT_SET_NO":999,"REV_AT_EPOCH":2730,"BSTAR":0,"MEAN_MOTION_DOT":-9.1e-7,"MEAN_MOTION_DDOT":0},{"OBJECT_NAME":"GSAT0224 (GALILEO 28)","OBJECT_ID":"2021-116B","EPOCH":"2026-04-24T17:19:56.422848","MEAN_MOTION":1.70475626,"ECCENTRICITY":6.258e-5,"INCLINATION":57.1774,"RA_OF_ASC_NODE":343.118,"ARG_OF_PERICENTER":14.3979,"MEAN_ANOMALY":165.3634,"EPHEMERIS_TYPE":0,"CLASSIFICATION_TYPE":"U","NORAD_CAT_ID":49810,"ELEMENT_SET_NO":999,"REV_AT_EPOCH":2729,"BSTAR":0,"MEAN_MOTION_DOT":-8.9e-7,"MEAN_MOTION_DDOT":0},{"OBJECT_NAME":"GOES 18","OBJECT_ID":"2022-021A","EPOCH":"2026-04-26T23:11:01.917024","MEAN_MOTION":1.00271663,"ECCENTRICITY":6.689e-5,"INCLINATION":0.0104,"RA_OF_ASC_NODE":83.6605,"ARG_OF_PERICENTER":3.3583,"MEAN_ANOMALY":338.7,"EPHEMERIS_TYPE":0,"CLASSIFICATION_TYPE":"U","NORAD_CAT_ID":51850,"ELEMENT_SET_NO":999,"REV_AT_EPOCH":607,"BSTAR":0,"MEAN_MOTION_DOT":0,"MEAN_MOTION_DDOT":0},{"OBJECT_NAME":"COSMOS 2557 (706K)","OBJECT_ID":"2022-075A","EPOCH":"2026-04-26T23:01:53.340960","MEAN_MOTION":2.13101838,"ECCENTRICITY":0.00101962,"INCLINATION":64.3278,"RA_OF_ASC_NODE":316.2899,"ARG_OF_PERICENTER":281.3644,"MEAN_ANOMALY":78.549,"EPHEMERIS_TYPE":0,"CLASSIFICATION_TYPE":"U","NORAD_CAT_ID":52984,"ELEMENT_SET_NO":999,"REV_AT_EPOCH":2962,"BSTAR":0,"MEAN_MOTION_DOT":-3.3e-7,"MEAN_MOTION_DDOT":0},{"OBJECT_NAME":"METEOSAT-12 (MTG-I1)","OBJECT_ID":"2022-170C","EPOCH":"2026-04-27T05:20:38.796864","MEAN_MOTION":1.00269708,"ECCENTRICITY":0.00011079,"INCLINATION":0.7245,"RA_OF_ASC_NODE":22.4777,"ARG_OF_PERICENTER":335.3296,"MEAN_ANOMALY":297.2322,"EPHEMERIS_TYPE":0,"CLASSIFICATION_TYPE":"U","NORAD_CAT_ID":54743,"ELEMENT_SET_NO":999,"REV_AT_EPOCH":1246,"BSTAR":0,"MEAN_MOTION_DOT":-1.8e-7,"MEAN_MOTION_DDOT":0},{"OBJECT_NAME":"METEOR-M2 3","OBJECT_ID":"2023-091A","EPOCH":"2026-04-27T07:10:13.141344","MEAN_MOTION":14.24042335,"ECCENTRICITY":0.00032204,"INCLINATION":98.6122,"RA_OF_ASC_NODE":173.3078,"ARG_OF_PERICENTER":334.1849,"MEAN_ANOMALY":25.9169,"EPHEMERIS_TYPE":0,"CLASSIFICATION_TYPE":"U","NORAD_CAT_ID":57166,"ELEMENT_SET_NO":999,"REV_AT_EPOCH":14727,"BSTAR":2.422905e-5,"MEAN_MOTION_DOT":1.2e-7,"MEAN_MOTION_DDOT":0},{"OBJECT_NAME":"COSMOS 2569 (703K)","OBJECT_ID":"2023-114A","EPOCH":"2026-04-26T15:14:27.042144","MEAN_MOTION":2.13103767,"ECCENTRICITY":0.00124057,"INCLINATION":65.2747,"RA_OF_ASC_NODE":74.3578,"ARG_OF_PERICENTER":295.3839,"MEAN_ANOMALY":64.465,"EPHEMERIS_TYPE":0,"CLASSIFICATION_TYPE":"U","NORAD_CAT_ID":57517,"ELEMENT_SET_NO":999,"REV_AT_EPOCH":2116,"BSTAR":0,"MEAN_MOTION_DOT":2.0e-8,"MEAN_MOTION_DDOT":0},{"OBJECT_NAME":"METEOR-M2 4","OBJECT_ID":"2024-039A","EPOCH":"2026-04-27T07:49:31.926144","MEAN_MOTION":14.22424135,"ECCENTRICITY":0.00064008,"INCLINATION":98.6976,"RA_OF_ASC_NODE":77.2745,"ARG_OF_PERICENTER":325.4394,"MEAN_ANOMALY":34.6367,"EPHEMERIS_TYPE":0,"CLASSIFICATION_TYPE":"U","NORAD_CAT_ID":59051,"ELEMENT_SET_NO":999,"REV_AT_EPOCH":11203,"BSTAR":3.711598e-5,"MEAN_MOTION_DOT":3.9e-7,"MEAN_MOTION_DDOT":0},{"OBJECT_NAME":"GSAT0225 (GALILEO 29)","OBJECT_ID":"2024-079A","EPOCH":"2026-04-26T12:18:05.867424","MEAN_MOTION":1.70474393,"ECCENTRICITY":0.00026444,"INCLINATION":55.0873,"RA_OF_ASC_NODE":102.5222,"ARG_OF_PERICENTER":283.706,"MEAN_ANOMALY":268.0228,"EPHEMERIS_TYPE":0,"CLASSIFICATION_TYPE":"U","NORAD_CAT_ID":59598,"ELEMENT_SET_NO":999,"REV_AT_EPOCH":1243,"BSTAR":0,"MEAN_MOTION_DOT":4.3e-7,"MEAN_MOTION_DDOT":0},{"OBJECT_NAME":"GSAT0227 (GALILEO 30)","OBJECT_ID":"2024-079C","EPOCH":"2026-04-26T23:16:59.988000","MEAN_MOTION":1.70474385,"ECCENTRICITY":0.00012648,"INCLINATION":55.0827,"RA_OF_ASC_NODE":102.5083,"ARG_OF_PERICENTER":14.0321,"MEAN_ANOMALY":345.9647,"EPHEMERIS_TYPE":0,"CLASSIFICATION_TYPE":"U","NORAD_CAT_ID":59600,"ELEMENT_SET_NO":999,"REV_AT_EPOCH":1249,"BSTAR":0,"MEAN_MOTION_DOT":4.1e-7,"MEAN_MOTION_DDOT":0},{"OBJECT_NAME":"GSAT0232 (GALILEO 32)","OBJECT_ID":"2024-167A","EPOCH":"2026-04-25T10:48:14.679360","MEAN_MOTION":1.70474394,"ECCENTRICITY":0.00048449,"INCLINATION":55.2008,"RA_OF_ASC_NODE":222.7596,"ARG_OF_PERICENTER":214.4336,"MEAN_ANOMALY":148.2272,"EPHEMERIS_TYPE":0,"CLASSIFICATION_TYPE":"U","NORAD_CAT_ID":61182,"ELEMENT_SET_NO":999,"REV_AT_EPOCH":998,"BSTAR":0,"MEAN_MOTION_DOT":-3.7e-7,"MEAN_MOTION_DDOT":0},{"OBJECT_NAME":"GSAT0226 (GALILEO 31)","OBJECT_ID":"2024-167B","EPOCH":"2026-04-27T01:30:11.070432","MEAN_MOTION":1.70474449,"ECCENTRICITY":0.0001799,"INCLINATION":55.1989,"RA_OF_ASC_NODE":222.7226,"ARG_OF_PERICENTER":195.0012,"MEAN_ANOMALY":168.6094,"EPHEMERIS_TYPE":0,"CLASSIFICATION_TYPE":"U","NORAD_CAT_ID":61183,"ELEMENT_SET_NO":999,"REV_AT_EPOCH":998,"BSTAR":0,"MEAN_MOTION_DOT":-3.8e-7,"MEAN_MOTION_DDOT":0},{"OBJECT_NAME":"GSAT0233 (GALILEO 33)","OBJECT_ID":"2025-302A","EPOCH":"2026-04-26T14:35:12.158304","MEAN_MOTION":1.70474442,"ECCENTRICITY":0.00021009,"INCLINATION":54.3025,"RA_OF_ASC_NODE":103.5985,"ARG_OF_PERICENTER":244.3299,"MEAN_ANOMALY":296.608,"EPHEMERIS_TYPE":0,"CLASSIFICATION_TYPE":"U","NORAD_CAT_ID":67160,"ELEMENT_SET_NO":999,"REV_AT_EPOCH":224,"BSTAR":0,"MEAN_MOTION_DOT":4.2e-7,"MEAN_MOTION_DDOT":0},{"OBJECT_NAME":"GSAT0234 (GALILEO 34)","OBJECT_ID":"2025-302C","EPOCH":"2026-04-24T13:27:31.000608","MEAN_MOTION":1.70474332,"ECCENTRICITY":0.00039067,"INCLINATION":54.3036,"RA_OF_ASC_NODE":103.6556,"ARG_OF_PERICENTER":293.1512,"MEAN_ANOMALY":251.5938,"EPHEMERIS_TYPE":0,"CLASSIFICATION_TYPE":"U","NORAD_CAT_ID":67162,"ELEMENT_SET_NO":999,"REV_AT_EPOCH":226,"BSTAR":0,"MEAN_MOTION_DOT":4.3e-7,"MEAN_MOTION_DDOT":0}]
